[{"OBJECT_NAME":"STARLINK-4270","OBJECT_ID":"2022-062AK","EPOCH":"2026-03-09T06:27:17.093376","MEAN_MOTION":15.08840708,"ECCENTRICITY":0.00015494,"INCLINATION":53.219,"RA_OF_ASC_NODE":26.0089,"ARG_OF_PERICENTER":93.4908,"MEAN_ANOMALY":266.6262,"EPHEMERIS_TYPE":0,"CLASSIFICATION_TYPE":"U","NORAD_CAT_ID":52863,"ELEMENT_SET_NO":999,"REV_AT_EPOCH":20586,"BSTAR":3.4003308e-5,"MEAN_MOTION_DOT":2.53e-6,"MEAN_MOTION_DDOT":0},{"OBJECT_NAME":"RAISE-4","OBJECT_ID":"2025-297B","EPOCH":"2026-03-09T23:25:57.718272","MEAN_MOTION":15.08174958,"ECCENTRICITY":0.00127133,"INCLINATION":97.4953,"RA_OF_ASC_NODE":219.2703,"ARG_OF_PERICENTER":22.7159,"MEAN_ANOMALY":337.4629,"EPHEMERIS_TYPE":0,"CLASSIFICATION_TYPE":"U","NORAD_CAT_ID":67073,"ELEMENT_SET_NO":999,"REV_AT_EPOCH":1293,"BSTAR":0.00037087145,"MEAN_MOTION_DOT":5.682e-5,"MEAN_MOTION_DDOT":0}]
